STARLINK-30946          
1 58450U 23183P   26190.10651530  .00000053  00000+0  11453-4 0  9993
2 58450  43.0001  75.9051 0001060 277.7640  82.3091 15.27581727145300
STARLINK-30944          
1 58451U 23183Q   26190.03212755  .00006542  00000+0  24682-3 0  9994
2 58451  42.9975  76.2059 0001566 259.8996 100.1679 15.27612328145265
STARLINK-30928          
1 58452U 23183R   26190.03598255  .00001387  00000+0  59894-4 0  9993
2 58452  43.0008  76.2329 0000849 290.2048  69.8713 15.27590795145280
STARLINK-30957          
1 58453U 23183S   26190.75006102  .00135661  00000+0  48208-2 0  9996
2 58453  42.9970  72.1355 0003145 233.7850 126.2711 15.27772067145400
STARLINK-30966          
1 58454U 23183T   26190.03470052  .00004050  00000+0  15662-3 0  9993
2 58454  43.0008  76.2201 0001106 270.0628  90.0097 15.27582909145298
STARLINK-30935          
1 58455U 23183U   26189.93219287  .00001609  00000+0  67973-4 0  9992
2 58455  43.0039  77.1719 0001577 265.2912  94.7760 15.27582353145270
STARLINK-30958          
1 58457U 23183W   26190.08209562  .00003401  00000+0  13307-3 0  9990
2 58457  43.0055  75.7214 0001084 263.3219  96.7509 15.27575472145307
STARLINK-30962          
1 58458U 23183X   26189.87823244 -.00005874  00000+0 -20384-3 0  9996
2 58458  42.9965  76.7904 0000870 323.3607  36.7185 15.27620400145275
STARLINK-30977          
1 58459U 23183Y   26190.06681893  .00000668  00000+0  33797-4 0  9999
2 58459  43.0053  76.4605 0002314 265.9141  94.1446 15.27588210145292
STARLINK-30947          
1 58473U 23186A   26190.10593247  .00002258  00000+0  91587-4 0  9996
2 58473  43.0105 101.4939 0001232 277.5642  82.5070 15.27576076144423
STARLINK-30941          
1 58475U 23186C   26190.10849864  .00000553  00000+0  29613-4 0  9994
2 58475  42.9989 101.5208 0000821 268.4745  91.6012 15.27581059144423
STARLINK-30980          
1 58476U 23186D   26190.11235138  .00012778  00000+0  47294-3 0  9995
2 58476  42.9996 101.5469 0001263 260.3195  99.7514 15.27587441144429
STARLINK-30965          
1 58477U 23186E   26190.08330895  .00000514  00000+0  28179-4 0  9995
2 58477  43.0030  86.6294 0000504 349.1018  10.9823 15.27577874144592
STARLINK-30990          
1 58478U 23186F   26190.10207178 -.00000143  00000+0  43283-5 0  9999
2 58478  43.0019 101.4710 0001236 270.2422  89.8288 15.27589584144462
STARLINK-30984          
1 58480U 23186H   26190.13324547  .00001738  00000+0  72614-4 0  9994
2 58480  43.0052  97.4334 0001136 270.2783  89.7939 15.27598085144476
STARLINK-30956          
1 58481U 23186J   26189.40259116  .00000404  00000+0  24194-4 0  9991
2 58481  43.0035  79.5562 0000903 252.8544 107.2208 15.27575880144613
STARLINK-30997          
1 58482U 23186K   26190.10127300  .00013321  00000+0  49241-3 0  9991
2 58482  42.9989  98.0217 0000767 304.1279  55.9499 15.27601733144468
STARLINK-30994          
1 58483U 23186L   26190.66668980  .00084168  00000+0  23732-2 0  9990
2 58483  42.9982 288.8832 0009686 350.1615 125.2621 15.35403886  5785
STARLINK-30991          
1 58484U 23186M   26190.13197003  .00000713  00000+0  35430-4 0  9990
2 58484  43.0046  97.4231 0001087 262.0490  98.0238 15.27587012144459
STARLINK-30979          
1 58485U 23186N   26190.24105238  .00000881  00000+0  41533-4 0  9999
2 58485  43.0040  97.3822 0001182  50.2673 309.8283 15.27592456144478
STARLINK-31005          
1 58486U 23186P   26190.16923211 -.00001256  00000+0 -36106-4 0  9999
2 58486  43.0014  97.7078 0001526 279.9546  80.1133 15.27597105144466
STARLINK-30987          
1 58487U 23186Q   26190.10769897  .00000957  00000+0  44264-4 0  9991
2 58487  43.0016  98.1042 0000718 251.5545 108.5229 15.27595597144455
STARLINK-31000          
1 58488U 23186R   26190.09613516  .00002456  00000+0  98674-4 0  9996
2 58488  43.0000  98.0140 0001194 247.7000 112.3725 15.27596603144452
STARLINK-30993          
1 58489U 23186S   26190.16537829  .00008085  00000+0  30291-3 0  9991
2 58489  42.9996  97.6743 0001410 268.0487  92.0203 15.27591027144466
STARLINK-30978          
1 58490U 23186T   26190.08970659  .00000720  00000+0  35685-4 0  9997
2 58490  43.0022  97.9677 0001552 260.5138  99.5538 15.27581334144458
STARLINK-30953          
1 58491U 23186U   26190.33106385  .00000012  00000+0  99566-5 0  9996
2 58491  43.0013 300.5366 0001234 266.8047  93.2663 15.27576415146492
STARLINK-30986          
1 58492U 23186V   26190.15124373  .00001027  00000+0  46819-4 0  9993
2 58492  43.0038  97.5714 0001634 268.1150  91.9515 15.27593715144462
STARLINK-30985          
1 58493U 23186W   26189.94737813  .00001104  00000+0  49629-4 0  9996
2 58493  43.0071  98.6167 0001967 251.7550 108.3088 15.27584067144430
STARLINK-30981          
1 58494U 23186X   26190.13967467  .00001861  00000+0  77084-4 0  9996
2 58494  43.0035  97.4816 0001625 243.0794 116.9892 15.27597077144460
STARLINK-31002          
1 58495U 23186Y   26190.11412312 -.00000945  00000+0 -24810-4 0  9992
2 58495  43.0068  98.1464 0002280 262.2509  97.8084 15.27586013144625
