OBJECT_NAME,OBJECT_ID,EPOCH,MEAN_MOTION,ECCENTRICITY,INCLINATION,RA_OF_ASC_NODE,ARG_OF_PERICENTER,MEAN_ANOMALY,EPHEMERIS_TYPE,CLASSIFICATION_TYPE,NORAD_CAT_ID,ELEMENT_SET_NO,REV_AT_EPOCH,BSTAR,MEAN_MOTION_DOT,MEAN_MOTION_DDOT
STARLINK-30946,2023-183P,2026-07-09T02:33:22.921920,15.27581727,.00010609,43.0001,75.9051,277.7640,82.3091,0,U,58450,999,14530,.11453299E-4,.53E-6,0
STARLINK-30944,2023-183Q,2026-07-09T00:46:15.820320,15.27612328,.00015662,42.9975,76.2059,259.8996,100.1679,0,U,58451,999,14526,.24681703E-3,.6542E-4,0
STARLINK-30928,2023-183R,2026-07-09T00:51:48.892320,15.27590795,.00008498,43.0008,76.2329,290.2048,69.8713,0,U,58452,999,14528,.59893601E-4,.1387E-4,0
STARLINK-30957,2023-183S,2026-07-09T18:00:05.272128,15.27772067,.0003145,42.9970,72.1355,233.7850,126.2711,0,U,58453,999,14540,.48208E-2,.135661E-2,0
STARLINK-30966,2023-183T,2026-07-09T00:49:58.124928,15.27582909,.00011068,43.0008,76.2201,270.0628,90.0097,0,U,58454,999,14529,.1566173E-3,.405E-4,0
STARLINK-30935,2023-183U,2026-07-08T22:22:21.463968,15.27582353,.00015771,43.0039,77.1719,265.2912,94.7760,0,U,58455,999,14527,.67973104E-4,.1609E-4,0
STARLINK-30958,2023-183W,2026-07-09T01:58:13.061568,15.27575472,.00010846,43.0055,75.7214,263.3219,96.7509,0,U,58457,999,14530,.13306827E-3,.3401E-4,0
STARLINK-30962,2023-183X,2026-07-08T21:04:39.282816,15.27620400,.00008706,42.9965,76.7904,323.3607,36.7185,0,U,58458,999,14527,-.20383862E-3,-.5874E-4,0
STARLINK-30977,2023-183Y,2026-07-09T01:36:13.155552,15.27588210,.00023142,43.0053,76.4605,265.9141,94.1446,0,U,58459,999,14529,.33797086E-4,.668E-5,0
STARLINK-30947,2023-186A,2026-07-09T02:32:32.565408,15.27576076,.00012326,43.0105,101.4939,277.5642,82.5070,0,U,58473,999,14442,.91586816E-4,.2258E-4,0
STARLINK-30941,2023-186C,2026-07-09T02:36:14.282496,15.27581059,.00008218,42.9989,101.5208,268.4745,91.6012,0,U,58475,999,14442,.29613182E-4,.553E-5,0
STARLINK-30980,2023-186D,2026-07-09T02:41:47.159232,15.27587441,.00012633,42.9996,101.5469,260.3195,99.7514,0,U,58476,999,14442,.47293687E-3,.12778E-3,0
STARLINK-30965,2023-186E,2026-07-09T01:59:57.893280,15.27577874,.00005044,43.0030,86.6294,349.1018,10.9823,0,U,58477,999,14459,.28178842E-4,.514E-5,0
STARLINK-30990,2023-186F,2026-07-09T02:26:59.001792,15.27589584,.00012361,43.0019,101.4710,270.2422,89.8288,0,U,58478,999,14446,.4328308E-5,-.143E-5,0
STARLINK-30984,2023-186H,2026-07-09T03:11:52.408608,15.27598085,.00011366,43.0052,97.4334,270.2783,89.7939,0,U,58480,999,14447,.72614E-4,.1738E-4,0
STARLINK-30956,2023-186J,2026-07-08T09:39:43.876224,15.27575880,.00009033,43.0035,79.5562,252.8544,107.2208,0,U,58481,999,14461,.24193689E-4,.404E-5,0
STARLINK-30997,2023-186K,2026-07-09T02:25:49.987200,15.27601733,.00007679,42.9989,98.0217,304.1279,55.9499,0,U,58482,999,14446,.49240965E-3,.13321E-3,0
STARLINK-30994,2023-186L,2026-07-09T16:00:01.998720,15.35403886,.0009686,42.9982,288.8832,350.1615,125.2621,0,U,58483,999,578,.23732E-2,.84168E-3,0
STARLINK-30991,2023-186M,2026-07-09T03:10:02.210592,15.27587012,.00010874,43.0046,97.4231,262.0490,98.0238,0,U,58484,999,14445,.35430425E-4,.713E-5,0
STARLINK-30979,2023-186N,2026-07-09T05:47:06.925632,15.27592456,.00011829,43.0040,97.3822,50.2673,309.8283,0,U,58485,999,14447,.41533394E-4,.881E-5,0
STARLINK-31005,2023-186P,2026-07-09T04:03:41.654304,15.27597105,.00015269,43.0014,97.7078,279.9546,80.1133,0,U,58486,999,14446,-.36105843E-4,-.1256E-4,0
STARLINK-30987,2023-186Q,2026-07-09T02:35:05.191008,15.27595597,.00007188,43.0016,98.1042,251.5545,108.5229,0,U,58487,999,14445,.44263702E-4,.957E-5,0
STARLINK-31000,2023-186R,2026-07-09T02:18:26.077824,15.27596603,.00011949,43.0000,98.0140,247.7000,112.3725,0,U,58488,999,14445,.98674475E-4,.2456E-4,0
STARLINK-30993,2023-186S,2026-07-09T03:58:08.684256,15.27591027,.000141,42.9996,97.6743,268.0487,92.0203,0,U,58489,999,14446,.3029083E-3,.8085E-4,0
STARLINK-30978,2023-186T,2026-07-09T02:09:10.649376,15.27581334,.00015526,43.0022,97.9677,260.5138,99.5538,0,U,58490,999,14445,.35684501E-4,.72E-5,0
STARLINK-30953,2023-186U,2026-07-09T07:56:43.916640,15.27576415,.00012349,43.0013,300.5366,266.8047,93.2663,0,U,58491,999,14649,.9956587E-5,.12E-6,0
STARLINK-30986,2023-186V,2026-07-09T03:37:47.458272,15.27593715,.00016343,43.0038,97.5714,268.1150,91.9515,0,U,58492,999,14446,.46819017E-4,.1027E-4,0
STARLINK-30985,2023-186W,2026-07-08T22:44:13.470432,15.27584067,.00019676,43.0071,98.6167,251.7550,108.3088,0,U,58493,999,14443,.49629437E-4,.1104E-4,0
STARLINK-30981,2023-186X,2026-07-09T03:21:07.891488,15.27597077,.00016252,43.0035,97.4816,243.0794,116.9892,0,U,58494,999,14446,.77083889E-4,.1861E-4,0
STARLINK-31002,2023-186Y,2026-07-09T02:44:20.237568,15.27586013,.00022809,43.0068,98.1464,262.2509,97.8084,0,U,58495,999,14462,-.24810334E-4,-.945E-5,0
